0 WESTFORD NEEDLES
1 02531U 63014AK  13281.37595302  .00000002  00000-0  00000+0 0  6116
2 02531 087.2286 255.3657 0279079 255.8820 101.4517 08.67052499 25526
0 WESTFORD NEEDLES
1 02531U 63014AK  13285.29846612  .00000002  00000-0  00000+0 0  6125
2 02531 087.2461 254.9681 0283178 251.9858 105.1113 08.67052982 25863
0 WESTFORD NEEDLES
1 02531U 63014AK  13288.29808888  .00000002  00000-0  00000+0 0  6132
2 02531 087.2463 254.6737 0275083 248.8666 108.0932 08.67053812 26115
0 WESTFORD NEEDLES
1 02531U 63014AK  13292.33614550  .00000002  00000-0  00000+0 0  6144
2 02531 087.2492 254.2744 0275085 244.6894 112.5381 08.67054576 26475
